[{"ward":"Agrowisata","district":"Rumbai","regency":"Pekanbaru","province":"Riau","postcode":28264},{"ward":"Air Hitam","district":"Payung Sekaki","regency":"Pekanbaru","province":"Riau","postcode":28292},{"ward":"Airdingin","district":"Bukit Raya","regency":"Pekanbaru","province":"Riau","postcode":28284},{"ward":"Airputih","district":"Tampan","regency":"Pekanbaru","province":"Riau","postcode":28296},{"ward":"Bambukuning","district":"Tenayan Raya","regency":"Pekanbaru","province":"Riau","postcode":28281},{"ward":"Bandarraya","district":"Payung Sekaki","regency":"Pekanbaru","province":"Riau","postcode":28292},{"ward":"Bencahlesung (Sail)","district":"Tenayan Raya","regency":"Pekanbaru","province":"Riau","postcode":28285},{"ward":"Binawidya","district":"Tampan","regency":"Pekanbaru","province":"Riau","postcode":28295},{"ward":"Cinta Raja","district":"Sail","regency":"Pekanbaru","province":"Riau","postcode":28131},{"ward":"Delima","district":"Tampan","regency":"Pekanbaru","province":"Riau","postcode":28290},{"ward":"Harjosari","district":"Sukajadi","regency":"Pekanbaru","province":"Riau","postcode":28122},{"ward":"Industritenayan","district":"Tenayan Raya","regency":"Pekanbaru","province":"Riau","postcode":28285},{"ward":"Jadirejo","district":"Sukajadi","regency":"Pekanbaru","province":"Riau","postcode":28126},{"ward":"Kampung Bandar","district":"Senapelan","regency":"Pekanbaru","province":"Riau","postcode":28153},{"ward":"Kampung Baru","district":"Senapelan","regency":"Pekanbaru","province":"Riau","postcode":28154},{"ward":"Kampung Dalam","district":"Senapelan","regency":"Pekanbaru","province":"Riau","postcode":28152},{"ward":"Kampung Melayu","district":"Sukajadi","regency":"Pekanbaru","province":"Riau","postcode":28124},{"ward":"Kampung Tengah","district":"Sukajadi","regency":"Pekanbaru","province":"Riau","postcode":28128},{"ward":"Kedung Sari (Kedungsari)","district":"Sukajadi","regency":"Pekanbaru","province":"Riau","postcode":28123},{"ward":"Kota Baru","district":"Pekanbaru Kota","regency":"Pekanbaru","province":"Riau","postcode":28114},{"ward":"Kota Tinggi","district":"Pekanbaru Kota","regency":"Pekanbaru","province":"Riau","postcode":28112},{"ward":"Kulim","district":"Tenayan Raya","regency":"Pekanbaru","province":"Riau","postcode":28286},{"ward":"Labuh Baru Barat","district":"Payung Sekaki","regency":"Pekanbaru","province":"Riau","postcode":28292},{"ward":"Labuh Baru Timur","district":"Payung Sekaki","regency":"Pekanbaru","province":"Riau","postcode":28292},{"ward":"Lembah Damai","district":"Rumbai Pesisir","regency":"Pekanbaru","province":"Riau","postcode":28263},{"ward":"Lembah Sari","district":"Rumbai Pesisir","regency":"Pekanbaru","province":"Riau","postcode":28262},{"ward":"Limbungan","district":"Rumbai Pesisir","regency":"Pekanbaru","province":"Riau","postcode":28261},{"ward":"Limbungan Baru","district":"Rumbai Pesisir","regency":"Pekanbaru","province":"Riau","postcode":28261},{"ward":"Maharani","district":"Rumbai","regency":"Pekanbaru","province":"Riau","postcode":28264},{"ward":"Maharatu","district":"Marpoyan Damai","regency":"Pekanbaru","province":"Riau","postcode":28125},{"ward":"Melebung","district":"Tenayan Raya","regency":"Pekanbaru","province":"Riau","postcode":28285},{"ward":"Mentangor","district":"Tenayan Raya","regency":"Pekanbaru","province":"Riau","postcode":28286},{"ward":"Meranti Pandak","district":"Rumbai Pesisir","regency":"Pekanbaru","province":"Riau","postcode":28266},{"ward":"Muarafajar Barat","district":"Rumbai","regency":"Pekanbaru","province":"Riau","postcode":28267},{"ward":"Muarafajar Timur","district":"Rumbai","regency":"Pekanbaru","province":"Riau","postcode":28267},{"ward":"Padang Bulan","district":"Senapelan","regency":"Pekanbaru","province":"Riau","postcode":28156},{"ward":"Padang Terubuk","district":"Senapelan","regency":"Pekanbaru","province":"Riau","postcode":28155},{"ward":"Palas","district":"Rumbai","regency":"Pekanbaru","province":"Riau","postcode":28264},{"ward":"Pebatuan","district":"Tenayan Raya","regency":"Pekanbaru","province":"Riau","postcode":28286},{"ward":"Pematangkapau","district":"Tenayan Raya","regency":"Pekanbaru","province":"Riau","postcode":28289},{"ward":"Perhentianmarpoyan","district":"Marpoyan Damai","regency":"Pekanbaru","province":"Riau","postcode":28125},{"ward":"Pesisir","district":"Lima Puluh","regency":"Pekanbaru","province":"Riau","postcode":28144},{"ward":"Pulau Karomah","district":"Sukajadi","regency":"Pekanbaru","province":"Riau","postcode":28127},{"ward":"Rantaupanjang","district":"Rumbai","regency":"Pekanbaru","province":"Riau","postcode":28264},{"ward":"Rejosari","district":"Tenayan Raya","regency":"Pekanbaru","province":"Riau","postcode":28281},{"ward":"Rintis","district":"Lima Puluh","regency":"Pekanbaru","province":"Riau","postcode":28141},{"ward":"Rumbai Bukit","district":"Rumbai","regency":"Pekanbaru","province":"Riau","postcode":28264},{"ward":"Sago","district":"Senapelan","regency":"Pekanbaru","province":"Riau","postcode":28151},{"ward":"Sekip","district":"Lima Puluh","regency":"Pekanbaru","province":"Riau","postcode":28142},{"ward":"Sialangmunggu","district":"Tampan","regency":"Pekanbaru","province":"Riau","postcode":28299},{"ward":"Sialangrampai","district":"Tenayan Raya","regency":"Pekanbaru","province":"Riau","postcode":28286},{"ward":"Sialangsakti","district":"Tenayan Raya","regency":"Pekanbaru","province":"Riau","postcode":28285},{"ward":"Sidomulyo Barat","district":"Tampan","regency":"Pekanbaru","province":"Riau","postcode":28294},{"ward":"Sidomulyo Timur","district":"Marpoyan Damai","regency":"Pekanbaru","province":"Riau","postcode":28125},{"ward":"Simpang Empat","district":"Pekanbaru Kota","regency":"Pekanbaru","province":"Riau","postcode":28116},{"ward":"Simpang Tiga","district":"Bukit Raya","regency":"Pekanbaru","province":"Riau","postcode":28284},{"ward":"Simpangbaru","district":"Tampan","regency":"Pekanbaru","province":"Riau","postcode":28293},{"ward":"Sri Meranti","district":"Rumbai","regency":"Pekanbaru","province":"Riau","postcode":28261},{"ward":"Suka Mulia (Sukamulya)","district":"Sail","regency":"Pekanbaru","province":"Riau","postcode":28133},{"ward":"Sukajadi","district":"Sukajadi","regency":"Pekanbaru","province":"Riau","postcode":28121},{"ward":"Sukamaju (Suka Maju)","district":"Sail","regency":"Pekanbaru","province":"Riau","postcode":28132},{"ward":"Sukaramai (Suka Ramai)","district":"Pekanbaru Kota","regency":"Pekanbaru","province":"Riau","postcode":28113},{"ward":"Sumahilang (Suma Hilang)","district":"Pekanbaru Kota","regency":"Pekanbaru","province":"Riau","postcode":28111},{"ward":"Sungaiambang","district":"Rumbai Pesisir","regency":"Pekanbaru","province":"Riau","postcode":28262},{"ward":"Sungaisibam","district":"Payung Sekaki","regency":"Pekanbaru","province":"Riau","postcode":28292},{"ward":"Sungaiukai","district":"Rumbai Pesisir","regency":"Pekanbaru","province":"Riau","postcode":28287},{"ward":"Tampan","district":"Payung Sekaki","regency":"Pekanbaru","province":"Riau","postcode":28292},{"ward":"Tanah Datar","district":"Pekanbaru Kota","regency":"Pekanbaru","province":"Riau","postcode":28115},{"ward":"Tangkerang Barat","district":"Marpoyan Damai","regency":"Pekanbaru","province":"Riau","postcode":28282},{"ward":"Tangkerang Labuai","district":"Bukit Raya","regency":"Pekanbaru","province":"Riau","postcode":28281},{"ward":"Tangkerang Selatan","district":"Bukit Raya","regency":"Pekanbaru","province":"Riau","postcode":28288},{"ward":"Tangkerang Tengah","district":"Marpoyan Damai","regency":"Pekanbaru","province":"Riau","postcode":28282},{"ward":"Tangkerang Timur","district":"Tenayan Raya","regency":"Pekanbaru","province":"Riau","postcode":28289},{"ward":"Tangkerang Utara","district":"Bukit Raya","regency":"Pekanbaru","province":"Riau","postcode":28289},{"ward":"Tanjung Rhu","district":"Lima Puluh","regency":"Pekanbaru","province":"Riau","postcode":28143},{"ward":"Tebing Tinggi Okura","district":"Rumbai Pesisir","regency":"Pekanbaru","province":"Riau","postcode":28287},{"ward":"Tirtasiak","district":"Payung Sekaki","regency":"Pekanbaru","province":"Riau","postcode":28292},{"ward":"Tobekgodang","district":"Tampan","regency":"Pekanbaru","province":"Riau","postcode":28297},{"ward":"Tuahkarya (Tuah Karya)","district":"Tampan","regency":"Pekanbaru","province":"Riau","postcode":28291},{"ward":"Tuahmadani","district":"Tampan","regency":"Pekanbaru","province":"Riau","postcode":28298},{"ward":"Tuahnegeri","district":"Tenayan Raya","regency":"Pekanbaru","province":"Riau","postcode":28285},{"ward":"Umban Sari","district":"Rumbai","regency":"Pekanbaru","province":"Riau","postcode":28265},{"ward":"Wonorejo","district":"Marpoyan Damai","regency":"Pekanbaru","province":"Riau","postcode":28125}]